IRIDIUM 119             
1 42959U 17061E   25274.56456564  .00000020  00000+0 -95188-7 0  9995
2 42959  86.3968 133.3906 0002178  91.1580 268.9866 14.34219924417745
IRIDIUM 107             
1 42960U 17061F   25274.58359410  .00000239  00000+0  78117-4 0  9992
2 42960  86.3969 133.4032 0002571  85.0299 275.1191 14.34220296417751
IRIDIUM 132             
1 42961U 17061G   25275.07831645  .00000185  00000+0  58988-4 0  9997
2 42961  86.3965 133.1773 0002260  84.7888 275.3565 14.34218107417825
IRIDIUM 136             
1 42962U 17061H   25275.11002725  .00000447  00000+0  15251-3 0  9998
2 42962  86.3967 133.1693 0002311  89.3102 270.8358 14.34219341417849
IRIDIUM 139             
1 42963U 17061J   25274.13960838  .00000548  00000+0  18850-3 0  9998
2 42963  86.3972 133.6328 0002301  82.5857 277.5600 14.34221789417716
IRIDIUM 125             
1 42964U 17061K   25275.10369153  .00000623  00000+0  21553-3 0  9998
2 42964  86.3971 133.2863 0002660  91.3882 268.7619 14.34218839417860
IRIDIUM 135             
1 43070U 17083A   25274.79873908 -.00000027  00000+0 -16752-4 0  9999
2 43070  86.3927  70.0194 0001806  90.1253 270.0150 14.34216981407114
IRIDIUM 138             
1 43071U 17083B   25275.17295032  .00000162  00000+0  50748-4 0  9990
2 43071  86.3910  69.5194 0002331 103.0738 257.0718 14.34218558407157
